ORBCOMM FM37            
1 33064U 08031E   25299.45938808  .00002798  00000+0  39065-3 0  9991
2 33064  48.4389  79.3412 0005785 223.3839 202.3379 14.80313380933490
ORBCOMM FM40            
1 33065U 08031F   25299.49957811  .00003671  00000+0  47592-3 0  9996
2 33065  48.4414  60.9264 0006995 238.0810 169.6819 14.82734901933646
VESSELSAT 1             
1 37840U 11058C   25299.53143204  .00000417  00000+0  82412-4 0  9998
2 37840  19.9633  19.1025 0013550 190.8519 169.1593 14.11383459724882
ORBCOMM FM109           
1 40086U 14040A   25299.52756575  .00000853  00000+0  21870-3 0  9992
2 40086  47.0018 115.8987 0002107 230.4843 129.5856 14.58412285600230
ORBCOMM FM107           
1 40087U 14040B   25299.48085296  .00000971  00000+0  24352-3 0  9992
2 40087  47.0035 117.0291 0001181 186.5273 173.5597 14.58488588600309
ORBCOMM FM106           
1 40088U 14040C   25299.30915123  .00001804  00000+0  32971-3 0  9997
2 40088  47.0605 289.3960 0017474 314.6421  45.3045 14.69829274602769
ORBCOMM FM111           
1 40089U 14040D   25299.19984257  .00004091  00000+0  46977-3 0  9991
2 40089  46.9989 122.1882 0028640 101.4177 258.9940 14.87229441609726
ORBCOMM FM104           
1 40090U 14040E   25298.99698745  .00000845  00000+0  22406-3 0  9998
2 40090  47.0037 154.5075 0015869  82.4285 277.8402 14.56878940599691
